SL-14 R/B               
1 18749U 88001B   25325.49178193  .00000603  00000+0  67100-4 0  9991
2 18749  82.5109 297.1349 0016722 233.2533 126.7148 14.85390841 25964
COSMOS 1933             
1 18958U 88020A   25325.57897587  .00004603  00000+0  23238-3 0  9995
2 18958  82.5139 357.7843 0003792 191.4775 168.6372 15.16871371 33833
SL-3 R/B                
1 19046U 88032B   25325.57808351  .00005922  00000+0  28872-3 0  9992
2 19046  97.5059 304.4523 0024915 249.6119 110.2439 15.18437015 35699
SL-16 R/B               
1 19120U 88039B   25325.32596634  .00000163  00000+0  99553-4 0  9990
2 19120  71.0142 297.6757 0020616 151.9149 208.3094 14.19591173943001
COSMOS 1953             
1 19210U 88050A   25325.27257215  .00006480  00000+0  24584-3 0  9995
2 19210  82.5086 267.1144 0013112 137.1697 223.0566 15.26584270 21233
SL-8 R/B                
1 19257U 88053B   25325.42211443  .00000246  00000+0  88458-4 0  9994
2 19257  74.0467 312.0099 0019662 163.2918 353.3260 14.38841290961022
COSMOS 1975             
1 19573U 88093A   25325.21070990  .00010655  00000+0  41235-3 0  9992
2 19573  82.5222 226.3701 0010929 183.0416 177.0758 15.26009506  2857
SL-14 R/B               
1 19574U 88093B   25325.48948227  .00000522  00000+0  57442-4 0  9999
2 19574  82.5291 143.6097 0021730  39.5255  18.2585 14.85516958984975
SL-16 R/B               
1 19650U 88102B   25325.55024575  .00000300  00000+0  17575-3 0  9990
2 19650  71.0010  19.0283 0014260 184.7633 175.3357 14.16132900911582
INTERCOSMOS 24          
1 20261U 89080A   25325.53055206  .00000833  00000+0  24189-3 0  9999
2 20261  82.6056 174.7438 1188407 183.7123 175.4524 12.59388110653187
SL-14 R/B               
1 20262U 89080C   25325.30206223  .00000441  00000+0  12376-3 0  9992
2 20262  82.5938 242.7776 1231070  72.5684 300.6006 12.50388926646601
DELTA 1 R/B             
1 20323U 89089B   25325.60070481  .00000400  00000+0  10750-3 0  9996
2 20323  97.0769 185.1868 0070719 103.8147 257.0933 14.50547421880069
