CCSDS_OMM_VERS = 2.0
CREATION_DATE  = 
ORIGINATOR     = 

OBJECT_NAME    = SL-14 R/B
OBJECT_ID      = 1988-001B
CENTER_NAME    = EARTH
REF_FRAME      = TEME
TIME_SYSTEM    = UTC
MEAN_ELEMENT_THEORY = SGP/SGP4

EPOCH          = 2025-11-21T11:48:09.958752
MEAN_MOTION    = 14.85390841
ECCENTRICITY   = .0016722
INCLINATION    = 82.5109
RA_OF_ASC_NODE = 297.1349
ARG_OF_PERICENTER = 233.2533
MEAN_ANOMALY   = 126.7148

EPHEMERIS_TYPE = 0
CLASSIFICATION_TYPE = U
NORAD_CAT_ID   = 18749
ELEMENT_SET_NO = 999
REV_AT_EPOCH   = 2596
BSTAR          = .671E-4
MEAN_MOTION_DOT = .603E-5
MEAN_MOTION_DDOT = 0

CCSDS_OMM_VERS = 2.0
CREATION_DATE  = 
ORIGINATOR     = 

OBJECT_NAME    = COSMOS 1933
OBJECT_ID      = 1988-020A
CENTER_NAME    = EARTH
REF_FRAME      = TEME
TIME_SYSTEM    = UTC
MEAN_ELEMENT_THEORY = SGP/SGP4

EPOCH          = 2025-11-21T13:53:43.515168
MEAN_MOTION    = 15.16871371
ECCENTRICITY   = .0003792
INCLINATION    = 82.5139
RA_OF_ASC_NODE = 357.7843
ARG_OF_PERICENTER = 191.4775
MEAN_ANOMALY   = 168.6372

EPHEMERIS_TYPE = 0
CLASSIFICATION_TYPE = U
NORAD_CAT_ID   = 18958
ELEMENT_SET_NO = 999
REV_AT_EPOCH   = 3383
BSTAR          = .23238E-3
MEAN_MOTION_DOT = .4603E-4
MEAN_MOTION_DDOT = 0

CCSDS_OMM_VERS = 2.0
CREATION_DATE  = 
ORIGINATOR     = 

OBJECT_NAME    = SL-3 R/B
OBJECT_ID      = 1988-032B
CENTER_NAME    = EARTH
REF_FRAME      = TEME
TIME_SYSTEM    = UTC
MEAN_ELEMENT_THEORY = SGP/SGP4

EPOCH          = 2025-11-21T13:52:26.415264
MEAN_MOTION    = 15.18437015
ECCENTRICITY   = .0024915
INCLINATION    = 97.5059
RA_OF_ASC_NODE = 304.4523
ARG_OF_PERICENTER = 249.6119
MEAN_ANOMALY   = 110.2439

EPHEMERIS_TYPE = 0
CLASSIFICATION_TYPE = U
NORAD_CAT_ID   = 19046
ELEMENT_SET_NO = 999
REV_AT_EPOCH   = 3569
BSTAR          = .28872E-3
MEAN_MOTION_DOT = .5922E-4
MEAN_MOTION_DDOT = 0

CCSDS_OMM_VERS = 2.0
CREATION_DATE  = 
ORIGINATOR     = 

OBJECT_NAME    = SL-16 R/B
OBJECT_ID      = 1988-039B
CENTER_NAME    = EARTH
REF_FRAME      = TEME
TIME_SYSTEM    = UTC
MEAN_ELEMENT_THEORY = SGP/SGP4

EPOCH          = 2025-11-21T07:49:23.491776
MEAN_MOTION    = 14.19591173
ECCENTRICITY   = .0020616
INCLINATION    = 71.0142
RA_OF_ASC_NODE = 297.6757
ARG_OF_PERICENTER = 151.9149
MEAN_ANOMALY   = 208.3094

EPHEMERIS_TYPE = 0
CLASSIFICATION_TYPE = U
NORAD_CAT_ID   = 19120
ELEMENT_SET_NO = 999
REV_AT_EPOCH   = 94300
BSTAR          = .99553E-4
MEAN_MOTION_DOT = .163E-5
MEAN_MOTION_DDOT = 0

CCSDS_OMM_VERS = 2.0
CREATION_DATE  = 
ORIGINATOR     = 

OBJECT_NAME    = COSMOS 1953
OBJECT_ID      = 1988-050A
CENTER_NAME    = EARTH
REF_FRAME      = TEME
TIME_SYSTEM    = UTC
MEAN_ELEMENT_THEORY = SGP/SGP4

EPOCH          = 2025-11-21T06:32:30.233760
MEAN_MOTION    = 15.26584270
ECCENTRICITY   = .0013112
INCLINATION    = 82.5086
RA_OF_ASC_NODE = 267.1144
ARG_OF_PERICENTER = 137.1697
MEAN_ANOMALY   = 223.0566

EPHEMERIS_TYPE = 0
CLASSIFICATION_TYPE = U
NORAD_CAT_ID   = 19210
ELEMENT_SET_NO = 999
REV_AT_EPOCH   = 2123
BSTAR          = .24584E-3
MEAN_MOTION_DOT = .648E-4
MEAN_MOTION_DDOT = 0

CCSDS_OMM_VERS = 2.0
CREATION_DATE  = 
ORIGINATOR     = 

OBJECT_NAME    = SL-8 R/B
OBJECT_ID      = 1988-053B
CENTER_NAME    = EARTH
REF_FRAME      = TEME
TIME_SYSTEM    = UTC
MEAN_ELEMENT_THEORY = SGP/SGP4

EPOCH          = 2025-11-21T10:07:50.686752
MEAN_MOTION    = 14.38841290
ECCENTRICITY   = .0019662
INCLINATION    = 74.0467
RA_OF_ASC_NODE = 312.0099
ARG_OF_PERICENTER = 163.2918
MEAN_ANOMALY   = 353.3260

EPHEMERIS_TYPE = 0
CLASSIFICATION_TYPE = U
NORAD_CAT_ID   = 19257
ELEMENT_SET_NO = 999
REV_AT_EPOCH   = 96102
BSTAR          = .88458E-4
MEAN_MOTION_DOT = .246E-5
MEAN_MOTION_DDOT = 0

CCSDS_OMM_VERS = 2.0
CREATION_DATE  = 
ORIGINATOR     = 

OBJECT_NAME    = COSMOS 1975
OBJECT_ID      = 1988-093A
CENTER_NAME    = EARTH
REF_FRAME      = TEME
TIME_SYSTEM    = UTC
MEAN_ELEMENT_THEORY = SGP/SGP4

EPOCH          = 2025-11-21T05:03:25.335360
MEAN_MOTION    = 15.26009506
ECCENTRICITY   = .0010929
INCLINATION    = 82.5222
RA_OF_ASC_NODE = 226.3701
ARG_OF_PERICENTER = 183.0416
MEAN_ANOMALY   = 177.0758

EPHEMERIS_TYPE = 0
CLASSIFICATION_TYPE = U
NORAD_CAT_ID   = 19573
ELEMENT_SET_NO = 999
REV_AT_EPOCH   = 285
BSTAR          = .41235E-3
MEAN_MOTION_DOT = .10655E-3
MEAN_MOTION_DDOT = 0

CCSDS_OMM_VERS = 2.0
CREATION_DATE  = 
ORIGINATOR     = 

OBJECT_NAME    = SL-14 R/B
OBJECT_ID      = 1988-093B
CENTER_NAME    = EARTH
REF_FRAME      = TEME
TIME_SYSTEM    = UTC
MEAN_ELEMENT_THEORY = SGP/SGP4

EPOCH          = 2025-11-21T11:44:51.268128
MEAN_MOTION    = 14.85516958
ECCENTRICITY   = .002173
INCLINATION    = 82.5291
RA_OF_ASC_NODE = 143.6097
ARG_OF_PERICENTER = 39.5255
MEAN_ANOMALY   = 18.2585

EPHEMERIS_TYPE = 0
CLASSIFICATION_TYPE = U
NORAD_CAT_ID   = 19574
ELEMENT_SET_NO = 999
REV_AT_EPOCH   = 98497
BSTAR          = .57442E-4
MEAN_MOTION_DOT = .522E-5
MEAN_MOTION_DDOT = 0

CCSDS_OMM_VERS = 2.0
CREATION_DATE  = 
ORIGINATOR     = 

OBJECT_NAME    = SL-16 R/B
OBJECT_ID      = 1988-102B
CENTER_NAME    = EARTH
REF_FRAME      = TEME
TIME_SYSTEM    = UTC
MEAN_ELEMENT_THEORY = SGP/SGP4

EPOCH          = 2025-11-21T13:12:21.232800
MEAN_MOTION    = 14.16132900
ECCENTRICITY   = .001426
INCLINATION    = 71.0010
RA_OF_ASC_NODE = 19.0283
ARG_OF_PERICENTER = 184.7633
MEAN_ANOMALY   = 175.3357

EPHEMERIS_TYPE = 0
CLASSIFICATION_TYPE = U
NORAD_CAT_ID   = 19650
ELEMENT_SET_NO = 999
REV_AT_EPOCH   = 91158
BSTAR          = .17575E-3
MEAN_MOTION_DOT = .3E-5
MEAN_MOTION_DDOT = 0

CCSDS_OMM_VERS = 2.0
CREATION_DATE  = 
ORIGINATOR     = 

OBJECT_NAME    = INTERCOSMOS 24
OBJECT_ID      = 1989-080A
CENTER_NAME    = EARTH
REF_FRAME      = TEME
TIME_SYSTEM    = UTC
MEAN_ELEMENT_THEORY = SGP/SGP4

EPOCH          = 2025-11-21T12:43:59.697984
MEAN_MOTION    = 12.59388110
ECCENTRICITY   = .1188407
INCLINATION    = 82.6056
RA_OF_ASC_NODE = 174.7438
ARG_OF_PERICENTER = 183.7123
MEAN_ANOMALY   = 175.4524

EPHEMERIS_TYPE = 0
CLASSIFICATION_TYPE = U
NORAD_CAT_ID   = 20261
ELEMENT_SET_NO = 999
REV_AT_EPOCH   = 65318
BSTAR          = .24189E-3
MEAN_MOTION_DOT = .833E-5
MEAN_MOTION_DDOT = 0

CCSDS_OMM_VERS = 2.0
CREATION_DATE  = 
ORIGINATOR     = 

OBJECT_NAME    = SL-14 R/B
OBJECT_ID      = 1989-080C
CENTER_NAME    = EARTH
REF_FRAME      = TEME
TIME_SYSTEM    = UTC
MEAN_ELEMENT_THEORY = SGP/SGP4

EPOCH          = 2025-11-21T07:14:58.176672
MEAN_MOTION    = 12.50388926
ECCENTRICITY   = .123107
INCLINATION    = 82.5938
RA_OF_ASC_NODE = 242.7776
ARG_OF_PERICENTER = 72.5684
MEAN_ANOMALY   = 300.6006

EPHEMERIS_TYPE = 0
CLASSIFICATION_TYPE = U
NORAD_CAT_ID   = 20262
ELEMENT_SET_NO = 999
REV_AT_EPOCH   = 64660
BSTAR          = .12376E-3
MEAN_MOTION_DOT = .441E-5
MEAN_MOTION_DDOT = 0

CCSDS_OMM_VERS = 2.0
CREATION_DATE  = 
ORIGINATOR     = 

OBJECT_NAME    = DELTA 1 R/B
OBJECT_ID      = 1989-089B
CENTER_NAME    = EARTH
REF_FRAME      = TEME
TIME_SYSTEM    = UTC
MEAN_ELEMENT_THEORY = SGP/SGP4

EPOCH          = 2025-11-21T14:25:00.895584
MEAN_MOTION    = 14.50547421
ECCENTRICITY   = .0070719
INCLINATION    = 97.0769
RA_OF_ASC_NODE = 185.1868
ARG_OF_PERICENTER = 103.8147
MEAN_ANOMALY   = 257.0933

EPHEMERIS_TYPE = 0
CLASSIFICATION_TYPE = U
NORAD_CAT_ID   = 20323
ELEMENT_SET_NO = 999
REV_AT_EPOCH   = 88006
BSTAR          = .1075E-3
MEAN_MOTION_DOT = .4E-5
MEAN_MOTION_DDOT = 0

